{"type": "FeatureCollection", "features": [ {"type": "Feature", "properties": {"norad_id": 67059, "name": "HULIANWANG DIGUI-119", "group": "last-30-days", "lat": 20.643219840594245, "lon": -2.930194688534247, "alt_km": 807.7691197343838, "timestamp": "2025-12-20T16:47:35.026942+00:00", "meta": {"OBJECT_NAME": "HULIANWANG DIGUI-119", "OBJECT_ID": "2025-295A", "EPOCH": "2025-12-17T11:16:29.850816", "MEAN_MOTION": 14.25569756, "ECCENTRICITY": 0.00138963, "INCLINATION": 50.007, "RA_OF_ASC_NODE": 352.2731, "ARG_OF_PERICENTER": 264.5159, "MEAN_ANOMALY": 95.417, "EPHEMERIS_TYPE": 0, "CLASSIFICATION_TYPE": "U", "NORAD_CAT_ID": 67059, "ELEMENT_SET_NO": 999, "REV_AT_EPOCH": 79, "BSTAR": -9.003402e-06, "MEAN_MOTION_DOT": -1.82e-06, "MEAN_MOTION_DDOT": 0}, "tle": {"line1": "1 67059U 25295A   25351.46978994 -.00000182  00000+0 -90034-5 0  9995", "line2": "2 67059  50.0070 352.2731 0013896 264.5159  95.4170 14.25569756   795"}}, "geometry": {"type": "Point", "coordinates": [-2.930194688534247, 20.643219840594245]}}, {"type": "Feature", "properties": {"norad_id": 67060, "name": "HULIANWANG DIGUI-120", "group": "last-30-days", "lat": 23.71179415165908, "lon": 0.26071447935602843, "alt_km": 807.4545781493052, "timestamp": "2025-12-20T16:47:35.026953+00:00", "meta": {"OBJECT_NAME": "HULIANWANG DIGUI-120", "OBJECT_ID": "2025-295B", "EPOCH": "2025-12-15T17:12:24.401376", "MEAN_MOTION": 14.25706335, "ECCENTRICITY": 0.00132237, "INCLINATION": 50.005, "RA_OF_ASC_NODE": 359.6709, "ARG_OF_PERICENTER": 257.265, "MEAN_ANOMALY": 102.6786, "EPHEMERIS_TYPE": 0, "CLASSIFICATION_TYPE": "U", "NORAD_CAT_ID": 67060, "ELEMENT_SET_NO": 999, "REV_AT_EPOCH": 54, "BSTAR": 6.6896441e-05, "MEAN_MOTION_DOT": 0, "MEAN_MOTION_DDOT": 0}, "tle": {"line1": "1 67060U 25295B   25349.71694909  .00000000  00000+0  66896-4 0  9998", "line2": "2 67060  50.0050 359.6709 0013223 257.2650 102.6786 14.25706335   543"}}, "geometry": {"type": "Point", "coordinates": [0.26071447935602843, 23.71179415165908]}}, {"type": "Feature", "properties": {"norad_id": 67061, "name": "HULIANWANG DIGUI-121", "group": "last-30-days", "lat": 24.093226880113797, "lon": 0.6637203419140244, "alt_km": 807.5469426596974, "timestamp": "2025-12-20T16:47:35.026963+00:00", "meta": {"OBJECT_NAME": "HULIANWANG DIGUI-121", "OBJECT_ID": "2025-295C", "EPOCH": "2025-12-15T17:12:22.292352", "MEAN_MOTION": 14.25729079, "ECCENTRICITY": 0.00132682, "INCLINATION": 50.0012, "RA_OF_ASC_NODE": 359.6606, "ARG_OF_PERICENTER": 256.3366, "MEAN_ANOMALY": 103.6071, "EPHEMERIS_TYPE": 0, "CLASSIFICATION_TYPE": "U", "NORAD_CAT_ID": 67061, "ELEMENT_SET_NO": 999, "REV_AT_EPOCH": 54, "BSTAR": 6.6638352e-05, "MEAN_MOTION_DOT": -1e-08, "MEAN_MOTION_DDOT": 0}, "tle": {"line1": "1 67061U 25295C   25349.71692468 -.00000001  00000+0  66638-4 0  9993", "line2": "2 67061  50.0012 359.6606 0013268 256.3366 103.6071 14.25729079   549"}}, "geometry": {"type": "Point", "coordinates": [0.6637203419140244, 24.093226880113797]}}, {"type": "Feature", "properties": {"norad_id": 67062, "name": "HULIANWANG DIGUI-122", "group": "last-30-days", "lat": 24.789191989914674, "lon": 1.4379616880863992, "alt_km": 806.3350390468831, "timestamp": "2025-12-20T16:47:35.026973+00:00", "meta": {"OBJECT_NAME": "HULIANWANG DIGUI-122", "OBJECT_ID": "2025-295D", "EPOCH": "2025-12-20T11:35:29.402016", "MEAN_MOTION": 14.257558, "ECCENTRICITY": 0.0013162, "INCLINATION": 50.0054, "RA_OF_ASC_NODE": 339.542, "ARG_OF_PERICENTER": 280.5442, "MEAN_ANOMALY": 79.3989, "EPHEMERIS_TYPE": 0, "CLASSIFICATION_TYPE": "U", "NORAD_CAT_ID": 67062, "ELEMENT_SET_NO": 999, "REV_AT_EPOCH": 122, "BSTAR": 0.00010262, "MEAN_MOTION_DOT": 8.5e-07, "MEAN_MOTION_DDOT": 0}, "tle": {"line1": "1 67062U 25295D   25354.48297919  .00000085  00000+0  10262-3 0  9998", "line2": "2 67062  50.0054 339.5420 0013162 280.5442  79.3989 14.25755800  1228"}}, "geometry": {"type": "Point", "coordinates": [1.4379616880863992, 24.789191989914674]}}, {"type": "Feature", "properties": {"norad_id": 67063, "name": "HULIANWANG DIGUI-123", "group": "last-30-days", "lat": 27.68498351386521, "lon": 4.753325120822367, "alt_km": 805.9522793670412, "timestamp": "2025-12-20T16:47:35.026987+00:00", "meta": {"OBJECT_NAME": "HULIANWANG DIGUI-123", "OBJECT_ID": "2025-295E", "EPOCH": "2025-12-20T09:53:26.005056", "MEAN_MOTION": 14.25888564, "ECCENTRICITY": 0.0012475, "INCLINATION": 50.0061, "RA_OF_ASC_NODE": 339.8363, "ARG_OF_PERICENTER": 279.4734, "MEAN_ANOMALY": 80.477, "EPHEMERIS_TYPE": 0, "CLASSIFICATION_TYPE": "U", "NORAD_CAT_ID": 67063, "ELEMENT_SET_NO": 999, "REV_AT_EPOCH": 121, "BSTAR": 0.00010143, "MEAN_MOTION_DOT": 8.3e-07, "MEAN_MOTION_DDOT": 0}, "tle": {"line1": "1 67063U 25295E   25354.41210654  .00000083  00000+0  10143-3 0  9999", "line2": "2 67063  50.0061 339.8363 0012475 279.4734  80.4770 14.25888564  1217"}}, "geometry": {"type": "Point", "coordinates": [4.753325120822367, 27.68498351386521]}}, {"type": "Feature", "properties": {"norad_id": 67064, "name": "HULIANWANG DIGUI-124", "group": "last-30-days", "lat": 28.975074525171628, "lon": 6.306528004939311, "alt_km": 806.354636758826, "timestamp": "2025-12-20T16:47:35.026998+00:00", "meta": {"OBJECT_NAME": "HULIANWANG DIGUI-124", "OBJECT_ID": "2025-295F", "EPOCH": "2025-12-20T09:52:55.123104", "MEAN_MOTION": 14.25949061, "ECCENTRICITY": 0.0012088, "INCLINATION": 50.0035, "RA_OF_ASC_NODE": 339.8207, "ARG_OF_PERICENTER": 274.1974, "MEAN_ANOMALY": 85.7558, "EPHEMERIS_TYPE": 0, "CLASSIFICATION_TYPE": "U", "NORAD_CAT_ID": 67064, "ELEMENT_SET_NO": 999, "REV_AT_EPOCH": 121, "BSTAR": -0.00019161, "MEAN_MOTION_DOT": -6.2e-06, "MEAN_MOTION_DDOT": 0}, "tle": {"line1": "1 67064U 25295F   25354.41174911 -.00000620  00000+0 -19161-3 0  9993", "line2": "2 67064  50.0035 339.8207 0012088 274.1974  85.7558 14.25949061  1216"}}, "geometry": {"type": "Point", "coordinates": [6.306528004939311, 28.975074525171628]}}, {"type": "Feature", "properties": {"norad_id": 67065, "name": "HULIANWANG DIGUI-125", "group": "last-30-days", "lat": 29.07893789004251, "lon": 6.436104721023267, "alt_km": 805.625317131211, "timestamp": "2025-12-20T16:47:35.027012+00:00", "meta": {"OBJECT_NAME": "HULIANWANG DIGUI-125", "OBJECT_ID": "2025-295G", "EPOCH": "2025-12-20T09:52:52.766112", "MEAN_MOTION": 14.25954175, "ECCENTRICITY": 0.0012269, "INCLINATION": 50.0011, "RA_OF_ASC_NODE": 339.819, "ARG_OF_PERICENTER": 280.1734, "MEAN_ANOMALY": 79.7796, "EPHEMERIS_TYPE": 0, "CLASSIFICATION_TYPE": "U", "NORAD_CAT_ID": 67065, "ELEMENT_SET_NO": 999, "REV_AT_EPOCH": 121, "BSTAR": 9.5242e-05, "MEAN_MOTION_DOT": 6.8e-07, "MEAN_MOTION_DDOT": 0}, "tle": {"line1": "1 67065U 25295G   25354.41172183  .00000068  00000+0  95242-4 0  9992", "line2": "2 67065  50.0011 339.8190 0012269 280.1734  79.7796 14.25954175  1213"}}, "geometry": {"type": "Point", "coordinates": [6.436104721023267, 29.07893789004251]}}, {"type": "Feature", "properties": {"norad_id": 67066, "name": "HULIANWANG DIGUI-126", "group": "last-30-days", "lat": 32.11298907892307, "lon": 10.391755547101285, "alt_km": 805.2909761702294, "timestamp": "2025-12-20T16:47:35.027022+00:00", "meta": {"OBJECT_NAME": "HULIANWANG DIGUI-126", "OBJECT_ID": "2025-295H", "EPOCH": "2025-12-20T09:51:38.405088", "MEAN_MOTION": 14.2609717, "ECCENTRICITY": 0.0011434, "INCLINATION": 50.0014, "RA_OF_ASC_NODE": 339.8136, "ARG_OF_PERICENTER": 277.2306, "MEAN_ANOMALY": 82.7308, "EPHEMERIS_TYPE": 0, "CLASSIFICATION_TYPE": "U", "NORAD_CAT_ID": 67066, "ELEMENT_SET_NO": 999, "REV_AT_EPOCH": 121, "BSTAR": 9.4401e-05, "MEAN_MOTION_DOT": 6.7e-07, "MEAN_MOTION_DDOT": 0}, "tle": {"line1": "1 67066U 25295H   25354.41086117  .00000067  00000+0  94401-4 0  9999", "line2": "2 67066  50.0014 339.8136 0011434 277.2306  82.7308 14.26097170  1219"}}, "geometry": {"type": "Point", "coordinates": [10.391755547101285, 32.11298907892307]}}, {"type": "Feature", "properties": {"norad_id": 67067, "name": "HULIANWANG DIGUI-127", "group": "last-30-days", "lat": 34.87101665687945, "lon": 14.39475758104205, "alt_km": 804.1738354023255, "timestamp": "2025-12-20T16:47:35.027032+00:00", "meta": {"OBJECT_NAME": "HULIANWANG DIGUI-127", "OBJECT_ID": "2025-295J", "EPOCH": "2025-12-20T09:50:28.385664", "MEAN_MOTION": 14.26250846, "ECCENTRICITY": 0.0010881, "INCLINATION": 50.0053, "RA_OF_ASC_NODE": 339.8165, "ARG_OF_PERICENTER": 280.9688, "MEAN_ANOMALY": 79.0002, "EPHEMERIS_TYPE": 0, "CLASSIFICATION_TYPE": "U", "NORAD_CAT_ID": 67067, "ELEMENT_SET_NO": 999, "REV_AT_EPOCH": 121, "BSTAR": -0.00026559, "MEAN_MOTION_DOT": -8.02e-06, "MEAN_MOTION_DDOT": 0}, "tle": {"line1": "1 67067U 25295J   25354.41005076 -.00000802  00000+0 -26559-3 0  9992", "line2": "2 67067  50.0053 339.8165 0010881 280.9688  79.0002 14.26250846  1215"}}, "geometry": {"type": "Point", "coordinates": [14.39475758104205, 34.87101665687945]}}, {"type": "Feature", "properties": {"norad_id": 67068, "name": "CZ-12 R/B", "group": "last-30-days", "lat": 20.306608362489687, "lon": 139.63551598595402, "alt_km": 712.5775551744382, "timestamp": "2025-12-20T16:47:35.027042+00:00", "meta": {"OBJECT_NAME": "CZ-12 R/B", "OBJECT_ID": "2025-295K", "EPOCH": "2025-12-20T09:25:47.149248", "MEAN_MOTION": 14.41128985, "ECCENTRICITY": 0.0056863, "INCLINATION": 49.9943, "RA_OF_ASC_NODE": 339.0702, "ARG_OF_PERICENTER": 163.3207, "MEAN_ANOMALY": 196.96, "EPHEMERIS_TYPE": 0, "CLASSIFICATION_TYPE": "U", "NORAD_CAT_ID": 67068, "ELEMENT_SET_NO": 999, "REV_AT_EPOCH": 121, "BSTAR": 9.1418e-06, "MEAN_MOTION_DOT": -1.38e-06, "MEAN_MOTION_DDOT": 0}, "tle": {"line1": "1 67068U 25295K   25354.39290682 -.00000138  00000+0  91418-5 0  9998", "line2": "2 67068  49.9943 339.0702 0056863 163.3207 196.9600 14.41128985  1219"}}, "geometry": {"type": "Point", "coordinates": [139.63551598595402, 20.306608362489687]}}]}